[{"OBJECT_NAME":"NUSAT-50 (NANCY ROMAN)","OBJECT_ID":"2024-149AB","EPOCH":"2026-03-09T19:15:16.765632","MEAN_MOTION":15.29713355,"ECCENTRICITY":0.00025229,"INCLINATION":97.3817,"RA_OF_ASC_NODE":150.7693,"ARG_OF_PERICENTER":238.0469,"MEAN_ANOMALY":122.0527,"EPHEMERIS_TYPE":0,"CLASSIFICATION_TYPE":"U","NORAD_CAT_ID":60493,"ELEMENT_SET_NO":999,"REV_AT_EPOCH":8693,"BSTAR":0.0004225155,"MEAN_MOTION_DOT":0.00012094,"MEAN_MOTION_DDOT":0},{"OBJECT_NAME":"STARLINK-32306","OBJECT_ID":"2024-183M","EPOCH":"2026-03-09T11:36:05.913792","MEAN_MOTION":15.30188628,"ECCENTRICITY":0.00011584,"INCLINATION":53.1599,"RA_OF_ASC_NODE":143.2003,"ARG_OF_PERICENTER":69.6853,"MEAN_ANOMALY":290.4272,"EPHEMERIS_TYPE":0,"CLASSIFICATION_TYPE":"U","NORAD_CAT_ID":61520,"ELEMENT_SET_NO":999,"REV_AT_EPOCH":7962,"BSTAR":8.1752832e-5,"MEAN_MOTION_DOT":2.062e-5,"MEAN_MOTION_DDOT":0}]
