NUSAT-50 (NANCY ROMAN)  
1 60493U 24149AB  26068.80227738  .00012094  00000+0  42252-3 0  9994
2 60493  97.3817 150.7693 0002523 238.0469 122.0527 15.29713355 86930
STARLINK-32306          
1 61520U 24183M   26068.48340178  .00002062  00000+0  81753-4 0  9996
2 61520  53.1599 143.2003 0001158  69.6853 290.4272 15.30188628 79625
